CCSDS_OMM_VERS = 2.0
CREATION_DATE  = 
ORIGINATOR     = 

OBJECT_NAME    = SL-4 R/B
OBJECT_ID      = 2025-310B
CENTER_NAME    = EARTH
REF_FRAME      = TEME
TIME_SYSTEM    = UTC
MEAN_ELEMENT_THEORY = SGP/SGP4

EPOCH          = 2026-01-15T15:31:10.691328
MEAN_MOTION    = 15.59723108
ECCENTRICITY   = .02653007
INCLINATION    = 97.9619
RA_OF_ASC_NODE = 27.5118
ARG_OF_PERICENTER = 0.3523
MEAN_ANOMALY   = 359.7870

EPHEMERIS_TYPE = 0
CLASSIFICATION_TYPE = U
NORAD_CAT_ID   = 67235
ELEMENT_SET_NO = 999
REV_AT_EPOCH   = 327
BSTAR          = .52541713E-3
MEAN_MOTION_DOT = .265867E-2
MEAN_MOTION_DDOT = .2427746E-5

CCSDS_OMM_VERS = 2.0
CREATION_DATE  = 
ORIGINATOR     = 

OBJECT_NAME    = HULIANWANG DIGUI-128
OBJECT_ID      = 2025-311A
CENTER_NAME    = EARTH
REF_FRAME      = TEME
TIME_SYSTEM    = UTC
MEAN_ELEMENT_THEORY = SGP/SGP4

EPOCH          = 2026-01-15T15:13:38.164800
MEAN_MOTION    = 13.90210717
ECCENTRICITY   = .00065679
INCLINATION    = 50.0101
RA_OF_ASC_NODE = 313.4332
ARG_OF_PERICENTER = 346.4900
MEAN_ANOMALY   = 13.5822

EPHEMERIS_TYPE = 0
CLASSIFICATION_TYPE = U
NORAD_CAT_ID   = 67236
ELEMENT_SET_NO = 999
REV_AT_EPOCH   = 288
BSTAR          = .81614162E-4
MEAN_MOTION_DOT = -.45E-6
MEAN_MOTION_DDOT = 0

CCSDS_OMM_VERS = 2.0
CREATION_DATE  = 
ORIGINATOR     = 

OBJECT_NAME    = HULIANWANG DIGUI-129
OBJECT_ID      = 2025-311B
CENTER_NAME    = EARTH
REF_FRAME      = TEME
TIME_SYSTEM    = UTC
MEAN_ELEMENT_THEORY = SGP/SGP4

EPOCH          = 2026-01-15T15:15:30.121920
MEAN_MOTION    = 13.90166973
ECCENTRICITY   = .00078152
INCLINATION    = 50.0090
RA_OF_ASC_NODE = 313.4372
ARG_OF_PERICENTER = 348.0369
MEAN_ANOMALY   = 12.0343

EPHEMERIS_TYPE = 0
CLASSIFICATION_TYPE = U
NORAD_CAT_ID   = 67237
ELEMENT_SET_NO = 999
REV_AT_EPOCH   = 288
BSTAR          = .76372457E-4
MEAN_MOTION_DOT = -.51E-6
MEAN_MOTION_DDOT = 0

CCSDS_OMM_VERS = 2.0
CREATION_DATE  = 
ORIGINATOR     = 

OBJECT_NAME    = HULIANWANG DIGUI-130
OBJECT_ID      = 2025-311C
CENTER_NAME    = EARTH
REF_FRAME      = TEME
TIME_SYSTEM    = UTC
MEAN_ELEMENT_THEORY = SGP/SGP4

EPOCH          = 2026-01-15T15:25:02.844192
MEAN_MOTION    = 13.90218602
ECCENTRICITY   = .00077665
INCLINATION    = 50.0071
RA_OF_ASC_NODE = 313.4663
ARG_OF_PERICENTER = 325.4977
MEAN_ANOMALY   = 34.5417

EPHEMERIS_TYPE = 0
CLASSIFICATION_TYPE = U
NORAD_CAT_ID   = 67238
ELEMENT_SET_NO = 999
REV_AT_EPOCH   = 288
BSTAR          = .84076042E-4
MEAN_MOTION_DOT = -.42E-6
MEAN_MOTION_DDOT = 0

CCSDS_OMM_VERS = 2.0
CREATION_DATE  = 
ORIGINATOR     = 

OBJECT_NAME    = HULIANWANG DIGUI-131
OBJECT_ID      = 2025-311D
CENTER_NAME    = EARTH
REF_FRAME      = TEME
TIME_SYSTEM    = UTC
MEAN_ELEMENT_THEORY = SGP/SGP4

EPOCH          = 2026-01-15T15:29:31.742592
MEAN_MOTION    = 13.90205630
ECCENTRICITY   = .00093773
INCLINATION    = 50.0066
RA_OF_ASC_NODE = 313.4811
ARG_OF_PERICENTER = 332.8334
MEAN_ANOMALY   = 27.2073

EPHEMERIS_TYPE = 0
CLASSIFICATION_TYPE = U
NORAD_CAT_ID   = 67239
ELEMENT_SET_NO = 999
REV_AT_EPOCH   = 288
BSTAR          = .80418412E-4
MEAN_MOTION_DOT = -.46E-6
MEAN_MOTION_DDOT = 0

CCSDS_OMM_VERS = 2.0
CREATION_DATE  = 
ORIGINATOR     = 

OBJECT_NAME    = HULIANWANG DIGUI-132
OBJECT_ID      = 2025-311E
CENTER_NAME    = EARTH
REF_FRAME      = TEME
TIME_SYSTEM    = UTC
MEAN_ELEMENT_THEORY = SGP/SGP4

EPOCH          = 2026-01-15T15:20:36.617280
MEAN_MOTION    = 13.90231481
ECCENTRICITY   = .00084652
INCLINATION    = 50.0078
RA_OF_ASC_NODE = 313.4522
ARG_OF_PERICENTER = 339.4838
MEAN_ANOMALY   = 20.5719

EPHEMERIS_TYPE = 0
CLASSIFICATION_TYPE = U
NORAD_CAT_ID   = 67240
ELEMENT_SET_NO = 999
REV_AT_EPOCH   = 288
BSTAR          = .74510039E-4
MEAN_MOTION_DOT = -.53E-6
MEAN_MOTION_DDOT = 0

CCSDS_OMM_VERS = 2.0
CREATION_DATE  = 
ORIGINATOR     = 

OBJECT_NAME    = HULIANWANG DIGUI-133
OBJECT_ID      = 2025-311F
CENTER_NAME    = EARTH
REF_FRAME      = TEME
TIME_SYSTEM    = UTC
MEAN_ELEMENT_THEORY = SGP/SGP4

EPOCH          = 2026-01-15T10:07:27.512544
MEAN_MOTION    = 13.90209467
ECCENTRICITY   = .00075869
INCLINATION    = 50.0122
RA_OF_ASC_NODE = 314.3128
ARG_OF_PERICENTER = 342.9599
MEAN_ANOMALY   = 17.1044

EPHEMERIS_TYPE = 0
CLASSIFICATION_TYPE = U
NORAD_CAT_ID   = 67241
ELEMENT_SET_NO = 999
REV_AT_EPOCH   = 285
BSTAR          = .86445611E-4
MEAN_MOTION_DOT = -.39E-6
MEAN_MOTION_DDOT = 0

CCSDS_OMM_VERS = 2.0
CREATION_DATE  = 
ORIGINATOR     = 

OBJECT_NAME    = HULIANWANG DIGUI-134
OBJECT_ID      = 2025-311G
CENTER_NAME    = EARTH
REF_FRAME      = TEME
TIME_SYSTEM    = UTC
MEAN_ELEMENT_THEORY = SGP/SGP4

EPOCH          = 2026-01-15T15:19:34.653792
MEAN_MOTION    = 13.90195582
ECCENTRICITY   = .00067014
INCLINATION    = 50.0053
RA_OF_ASC_NODE = 313.4415
ARG_OF_PERICENTER = 332.6519
MEAN_ANOMALY   = 27.4026

EPHEMERIS_TYPE = 0
CLASSIFICATION_TYPE = U
NORAD_CAT_ID   = 67242
ELEMENT_SET_NO = 999
REV_AT_EPOCH   = 288
BSTAR          = .83319738E-4
MEAN_MOTION_DOT = -.43E-6
MEAN_MOTION_DDOT = 0

CCSDS_OMM_VERS = 2.0
CREATION_DATE  = 
ORIGINATOR     = 

OBJECT_NAME    = HULIANWANG DIGUI-135
OBJECT_ID      = 2025-311H
CENTER_NAME    = EARTH
REF_FRAME      = TEME
TIME_SYSTEM    = UTC
MEAN_ELEMENT_THEORY = SGP/SGP4

EPOCH          = 2026-01-15T10:12:02.444256
MEAN_MOTION    = 13.90184520
ECCENTRICITY   = .00079203
INCLINATION    = 50.0039
RA_OF_ASC_NODE = 314.3073
ARG_OF_PERICENTER = 334.4451
MEAN_ANOMALY   = 25.6055

EPHEMERIS_TYPE = 0
CLASSIFICATION_TYPE = U
NORAD_CAT_ID   = 67243
ELEMENT_SET_NO = 999
REV_AT_EPOCH   = 285
BSTAR          = .80001537E-4
MEAN_MOTION_DOT = -.47E-6
MEAN_MOTION_DDOT = 0

CCSDS_OMM_VERS = 2.0
CREATION_DATE  = 
ORIGINATOR     = 

OBJECT_NAME    = HULIANWANG DIGUI-136
OBJECT_ID      = 2025-311J
CENTER_NAME    = EARTH
REF_FRAME      = TEME
TIME_SYSTEM    = UTC
MEAN_ELEMENT_THEORY = SGP/SGP4

EPOCH          = 2026-01-15T15:16:20.220960
MEAN_MOTION    = 13.90230435
ECCENTRICITY   = .00068454
INCLINATION    = 50.0111
RA_OF_ASC_NODE = 313.4448
ARG_OF_PERICENTER = 341.4891
MEAN_ANOMALY   = 18.5758

EPHEMERIS_TYPE = 0
CLASSIFICATION_TYPE = U
NORAD_CAT_ID   = 67244
ELEMENT_SET_NO = 999
REV_AT_EPOCH   = 288
BSTAR          = .81175873E-4
MEAN_MOTION_DOT = -.45E-6
MEAN_MOTION_DDOT = 0

CCSDS_OMM_VERS = 2.0
CREATION_DATE  = 
ORIGINATOR     = 

OBJECT_NAME    = CZ-8A R/B
OBJECT_ID      = 2025-311K
CENTER_NAME    = EARTH
REF_FRAME      = TEME
TIME_SYSTEM    = UTC
MEAN_ELEMENT_THEORY = SGP/SGP4

EPOCH          = 2026-01-15T14:35:34.662912
MEAN_MOTION    = 14.12608664
ECCENTRICITY   = .00889546
INCLINATION    = 50.0054
RA_OF_ASC_NODE = 310.6056
ARG_OF_PERICENTER = 153.2495
MEAN_ANOMALY   = 207.3041

EPHEMERIS_TYPE = 0
CLASSIFICATION_TYPE = U
NORAD_CAT_ID   = 67245
ELEMENT_SET_NO = 999
REV_AT_EPOCH   = 292
BSTAR          = -.33074452E-4
MEAN_MOTION_DOT = -.219E-5
MEAN_MOTION_DDOT = 0

CCSDS_OMM_VERS = 2.0
CREATION_DATE  = 
ORIGINATOR     = 

OBJECT_NAME    = FENGYUN 4C
OBJECT_ID      = 2025-312A
CENTER_NAME    = EARTH
REF_FRAME      = TEME
TIME_SYSTEM    = UTC
MEAN_ELEMENT_THEORY = SGP/SGP4

EPOCH          = 2026-01-15T21:26:38.736960
MEAN_MOTION    = 1.00270350
ECCENTRICITY   = .0002454
INCLINATION    = 0.0744
RA_OF_ASC_NODE = 237.3397
ARG_OF_PERICENTER = 52.2287
MEAN_ANOMALY   = 280.5007

EPHEMERIS_TYPE = 0
CLASSIFICATION_TYPE = U
NORAD_CAT_ID   = 67246
ELEMENT_SET_NO = 999
REV_AT_EPOCH   = 25
BSTAR          = 0
MEAN_MOTION_DOT = -.304E-5
MEAN_MOTION_DDOT = 0

